ORBCOMM FM103           
1 40091U 14040F   25259.86138447  .00000451  00000+0  13319-3 0  9996
2 40091  47.0057 304.8234 0002281 313.3665  46.7030 14.58301675577484
ORBCOMM FM114           
1 41179U 15081A   25260.22291348  .00000540  00000+0  15201-3 0  9993
2 41179  47.0022 212.1118 0001809  24.4499 335.6472 14.58337821517909
ORBCOMM FM119           
1 41180U 15081B   25260.00963047  .00000465  00000+0  13613-3 0  9994
2 41180  46.9997 122.4576 0000649 117.4247 242.6705 14.58273473519120
ORBCOMM FM105           
1 41181U 15081C   25260.09877782  .00000158  00000+0  89105-4 0  9993
2 41181  47.0007 135.9312 0001867 356.6010   3.4858 14.45288632514047
ORBCOMM FM110           
1 41182U 15081D   25260.28359154  .00000614  00000+0  16777-3 0  9994
2 41182  47.0012 211.3613 0003124 273.0061  87.0467 14.58348906517786
ORBCOMM FM118           
1 41183U 15081E   25260.38440453  .00000511  00000+0  14587-3 0  9992
2 41183  47.0034 211.1416 0003117 234.2386 125.8210 14.58328195517900
ORBCOMM FM112           
1 41184U 15081F   25259.97962610  .00000641  00000+0  17334-3 0  9997
2 41184  46.9984 121.6695 0001227  34.3686 325.7279 14.58388630519064
ORBCOMM FM113           
1 41185U 15081G   25259.88805806  .00000621  00000+0  16915-3 0  9993
2 41185  46.9999 122.4415 0000931  51.9983 308.0987 14.58382764519035
